#dP2022  9  4  6  0  0.00000000      96 __u+U ITR00 EXT  IAC
## 2226  21600.00000000   900.00000000 59826 0.2500000000000
+  117   C06C07C08C09C10C11C12C13C14C16C19C20C21C22C23C24C25
+        C26C27C28C29C30C32C33C34C35C36C37C38C39C40C41C42C43
+        C44C45C46E01E02E03E04E05E07E08E09E10E11E12E13E14E15
+        E18E19E21E24E25E26E27E30E31E33E34E36G01G02G03G04G05
+        G06G07G08G09G10G11G12G13G14G15G16G17G18G19G20G21G22
+        G23G24G25G26G27G28G29G30G31G32J02J03R01R02R03R04R05
+        R07R08R09R11R12R13R14R15R17R18R19R20R21R24R25  0  0
++        11  9 10 11 11 14 10 10  9  9  8  9  9  9  8 10  8
++         9 10  8  9  8  9 10  7  7  9  9 10  9  9  9  8  8
++         8  9  9  9  8  8  8  9  8  8  8  9  9  8  9 10  8
++         8  8  9  9  7  9  9  8  9  8  8  8  8  9  8  8  8
++         8  8  8  8  8  8  8  8  8  8  8  8  8  9  8  8  9
++         8  8  8  8  8  8  8  9  8  8  7  8  8 11  9  8  9
++         8 10  8  9  9  8  8  9  8 10  9  9  8  7  9  0  0
%c M  cc GPS ccc cccc cccc cccc cccc ccccc ccccc ccccc ccccc
%c cc cc ccc ccc cccc cccc cccc cccc ccccc ccccc ccccc ccccc
%f  0.0000000  0.000000000  0.00000000000  0.000000000000000
%f  0.0000000  0.000000000  0.00000000000  0.000000000000000
%i    0    0    0    0      0      0      0      0         0
%i    0    0    0    0      0      0      0      0         0
/* IAC                                ULTRA-RAPID PREDICTION
/* S/V CLOCKS ARE ALIGNED TO GNSS TIME                      
/* G:C1WC2W R:C1PC2P E:C1XC5X C:C2IC6I J:C1CC2S             
/* PCV:IGS14_2218 OL/AL:FES2004  NONE     YN ORB:CoN CLK:CoN
*  2022 09 04 23  0  0.00000000
PC06  -5568.375472  24467.780196 -33848.503588    765.890821
PC07 -17949.402161  34004.154532  17152.894206    -97.132783
PC08  -4418.185803  39473.254957  14402.952038    462.264255
PC09   3854.780639  27551.400450 -31170.193549   -873.543476
PC10 -10634.392397  33920.613170  22588.857770    100.646608
PC11 -10128.052903 -17594.964884 -19064.000147   -428.092160
PC12   9693.410154 -12478.284245 -22968.864571   -529.150260
PC13    156.118679  41599.400484   7891.349772     71.714037
PC14    -74.526152 -18628.016957  20807.531758    631.995917
PC16  -9241.357253  22194.618438 -34438.029337    139.739383
PC19   9576.951807  12527.292037 -23006.217432   -582.767727
PC20  -7729.839133  21151.602991 -16457.458215    440.758014
PC21  21656.523648 -17611.081084   -496.990705   -328.714907
PC22  22169.870749  -3695.343444 -16564.327867   -479.541953
PC23 -16712.861140  -6397.894267 -21398.776490   -965.753280
PC24   1383.176537 -26661.083181   8078.968711   -972.092208
PC25 -12114.940064 -22841.988004 -10474.231663   -682.899081
PC26  11643.797740 -15513.465029  20041.774983     -2.952673
PC27 -18197.181101   7638.951648  19711.220546     15.950361
PC28 -26614.939311  -5544.326902   6277.279754      9.256506
PC29  19970.747209  15472.440354  11852.589581      9.187823
PC30    575.971105  16628.497384  22393.171072    502.693990
PC32 -21551.424073  17710.392025    608.135055   -819.151805
PC33  -9551.474380 -12598.723289  22993.091855   -581.896473
PC34  -1824.969093 -16933.909002 -22120.142236   -320.756771
PC35  26882.099713   5514.443174  -5002.606633    444.122925
PC36  11309.981421  23483.920166  10005.726265    -52.111877
PC37 -12564.357018  14061.459128 -20556.602594    -94.682984
PC38  -9441.360108  35592.696021  20704.387682     22.002197
PC39 -14289.938321  19951.586222 -34283.017995     -0.374010
PC40 -25517.016466  29286.743222  16125.223173     -3.555942
PC41 -21967.360059   3232.013023  16947.927844    -48.833835
PC42   8745.111502 -21418.552535  15655.601034   -237.425102
PC43 -19322.816140 -15848.678174 -12443.442844     12.472052
PC44  18089.164310  -8305.350050 -19561.171697     39.792778
PC45  16620.311588   6038.658669  21601.890031    852.733088
PC46   -149.720277  27147.530845  -6538.812701   -523.935622
PE01  -7694.062423  28284.374824   4141.723544   -521.832133
PE02   7578.465058 -28280.402282  -4297.166166    322.703033
PE03   6035.171327 -17504.200573  23091.734398   -596.575255
PE04  15707.551074  12766.325969 -21595.644467  -1108.500243
PE05  24685.057707 -12045.179699  11036.325049   -147.044827
PE07 -28693.357226   -330.418302   7245.101435   -702.652188
PE08 -15814.000606 -12548.497898  21640.967879   -593.243398
PE09  28678.667841    264.979640  -7355.245569   -647.214380
PE10  21932.721463  18317.671356  -7761.534133   -474.604240
PE11  22336.325418   9784.876940 -16791.369724   2356.295772
PE12  17980.734627  23436.745237   1836.517054   -151.923147
PE13 -22423.183181 -10501.288731  16214.757949    430.496907
PE14 -24098.706318  -6377.279567  -8068.419970  -1729.482292
PE15 -17924.539331 -23462.779210  -2054.742847    722.477625
PE18  30340.490087  -4287.778803  -5251.668595  -1014.004112
PE19  -8995.519898  17233.112807 -22319.996286  -4619.074894
PE21 -17117.497032  20353.335156 -12989.943281   -755.849792
PE24  17229.694537   1081.763117  24038.221454   -819.064924
PE25  17219.266721 -20104.847955  13257.629648   -586.729570
PE26 -13215.731398   9421.836610  24750.782044  -1575.561926
PE27 -17492.531475    217.307221 -23867.478378   -384.500979
PE30  -6945.228559 -20569.692734 -20114.993433   -810.629681
PE31   7580.439603  19861.363582  20613.012521   -502.921913
PE33   2881.839524  22510.952012  19002.620027   -453.566081
PE34  -3060.761283 -22574.773182 -18900.045788     -2.888217
PE36  13733.337407  -8499.415748 -24808.631484   -426.767520
PG01 -18825.327940  -9114.720764  16261.241263    289.577772
PG02  19242.235393  16687.422284  -6623.552694   -647.089089
PG03 -16002.589046    302.473812  21049.270780   -345.434731
PG04 -26298.588950  -1607.248204   3755.149835   -123.410216
PG05  10576.258799  12523.288149 -21051.166802    -95.460873
PG06   3714.674398  22214.580249  14082.505347    449.920861
PG07 -13569.999453   7085.570426 -21304.984118    310.019292
PG08 -22771.264458  -6501.063423 -12418.075180    -83.293976
PG09 -24438.324838   7505.339291  -7356.097388   -300.058331
PG10  11181.124238 -23904.607928    414.588112     -1.850636
PG11  11685.114673  23655.466324   3207.496995    -14.366238
PG12  15606.961465   2023.100349  21116.417471   -273.226806
PG13  15414.733392  13024.259853 -17528.188104    381.309724
PG14 -13213.584218  22933.308177  -1318.211417   -105.674120
PG15  23327.871410   4690.064882 -12535.952109    -31.644532
PG16  -4519.378408 -18016.847641 -19080.285954   -523.108704
PG17 -13760.674623  13007.997712  19084.536602    655.801578
PG18  12577.532698  -8114.683010 -21949.705744     59.293796
PG19  -2871.661424  14596.682089  21744.986423    206.407448
PG20   2791.778588  23185.025415 -12858.843789    489.083985
PG21 -20546.037382 -15050.708710   9360.466486    159.820872
PG22   -376.655780 -15385.546943  22069.601996    322.092266
PG23  15820.577165 -18894.658882  -9754.816914    -38.912727
PG24  20735.173131  11368.984281  12182.119408    146.372738
PG25  17711.215146 -11334.393517  15772.179330    368.519207
PG26    721.394622 -23832.316584 -11451.891490    227.053407
PG27 -12218.587803 -12863.082965 -20103.403914    214.626820
PG28  -7840.188395  24238.142035   8443.619259    339.748429
PG29  25249.879346  -4641.359551  -7020.378637   -548.815784
PG30  -5310.448191  17500.816430 -19083.498826   -536.694174
PG31  -4396.658504 -22822.278575  12277.762287   -192.189189
PG32  10070.694681 -14728.630231  19760.943665   -223.752170
PJ02 -24779.235215  31406.281914  -8698.883096     -4.387911
PJ03 -26872.216317  22349.895296  28632.024096     -1.262094
PR01   1618.450547 -13117.997900  21814.771105     14.257288
PR02 -16036.402681  -1809.665436  19815.397704   -291.900915
PR03 -22916.433985   9648.861892   5867.915906     63.124961
PR04 -17054.034682  15360.413349 -11122.147871    156.420905
PR05  -1890.793611  12753.010273 -22008.746720     99.102867
PR07  22865.055336 -10051.752892  -5013.900462     40.468284
PR08  16792.887537 -15515.059123  11331.701029    -67.034786
PR09   9919.253440  12689.004374  19775.667964     74.966089
PR11   6008.515135 -21239.262371  12814.921473     28.423344
PR12  -2527.718121 -24740.190518  -5610.245689     20.852864
PR13  -9217.114552 -14228.320914 -19067.586242    -26.439201
PR14 -10798.367473   6250.697947 -22226.723637     24.321556
PR15  -5895.019529  21766.838290 -11890.400798     93.890405
PR17 -19444.626263  -3121.982241  16187.808424    558.394517
PR18  -6796.784503   8058.605433  23240.724772     40.870921
PR19   7953.625086  15174.651930  18900.633554   -202.505828
PR20  21097.015182  14279.237772    936.407898    -77.768821
PR21  18624.139529   2233.889031 -17308.300609   -331.129836
PR24 -21668.779600 -13432.359924   -210.952155    112.757263
PR25   6644.929505  -8592.980533 -23055.271411     12.826139
EOF
